[{"CCSDS_OMM_VERS":"2.0","COMMENT":"GENERATED VIA SPACE-TRACK.ORG API","CREATION_DATE":"2004-08-15T23:35:38","ORIGINATOR":"18 SPCS","OBJECT_NAME":"SL-9 R\/B","OBJECT_ID":"1965-054B","CENTER_NAME":"EARTH","REF_FRAME":"TEME","TIME_SYSTEM":"UTC","MEAN_ELEMENT_THEORY":"SGP4","EPOCH":"1965-07-17T11:44:39.268032","MEAN_MOTION":"15.58219565","ECCENTRICITY":"0.03318870","INCLINATION":"63.4580","RA_OF_ASC_NODE":"131.8404","ARG_OF_PERICENTER":"66.3373","MEAN_ANOMALY":"297.1273","EPHEMERIS_TYPE":"0","CLASSIFICATION_TYPE":"U","NORAD_CAT_ID":"1451","ELEMENT_SET_NO":"999","REV_AT_EPOCH":"16","BSTAR":"0.00000000000000","MEAN_MOTION_DOT":"0.05705034","MEAN_MOTION_DDOT":"0.0511490000000","SEMIMAJOR_AXIS":"6770.951","PERIOD":"92.413","APOAPSIS":"617.535","PERIAPSIS":"168.097","OBJECT_TYPE":"ROCKET BODY","RCS_SIZE":null,"COUNTRY_CODE":null,"LAUNCH_DATE":null,"SITE":null,"DECAY_DATE":"1965-09-18","FILE":"33911","GP_ID":"8702259","TLE_LINE0":"0 SL-9 R\/B","TLE_LINE1":"1 01451U 65054  B 65198.48934338  .05705034 +51149-1 +00000-0 0  9997","TLE_LINE2":"2 01451 063.4580 131.8404 0331887 066.3373 297.1273 15.58219565000163"},{"CCSDS_OMM_VERS":"2.0","COMMENT":"GENERATED VIA SPACE-TRACK.ORG API","CREATION_DATE":"2004-08-15T23:35:38","ORIGINATOR":"18 SPCS","OBJECT_NAME":"SL-6 R\/B","OBJECT_ID":"1965-056B","CENTER_NAME":"EARTH","REF_FRAME":"TEME","TIME_SYSTEM":"UTC","MEAN_ELEMENT_THEORY":"SGP4","EPOCH":"1965-07-18T15:52:50.982816","MEAN_MOTION":"16.30338047","ECCENTRICITY":"0.00670920","INCLINATION":"64.7539","RA_OF_ASC_NODE":"189.7301","ARG_OF_PERICENTER":"345.9630","MEAN_ANOMALY":"13.9551","EPHEMERIS_TYPE":"0","CLASSIFICATION_TYPE":"U","NORAD_CAT_ID":"1453","ELEMENT_SET_NO":"999","REV_AT_EPOCH":"1","BSTAR":"0.00000000000000","MEAN_MOTION_DOT":"0.01521617","MEAN_MOTION_DDOT":"0.0025728000000","SEMIMAJOR_AXIS":"6569.772","PERIOD":"88.325","APOAPSIS":"235.715","PERIAPSIS":"147.559","OBJECT_TYPE":"ROCKET BODY","RCS_SIZE":null,"COUNTRY_CODE":null,"LAUNCH_DATE":null,"SITE":null,"DECAY_DATE":"1965-07-20","FILE":"33911","GP_ID":"8702287","TLE_LINE0":"0 SL-6 R\/B","TLE_LINE1":"1 01453U 65056  B 65199.66170119  .01521617 +25728-2 +00000-0 0  9995","TLE_LINE2":"2 01453 064.7539 189.7301 0067092 345.9630 013.9551 16.30338047000012"},{"CCSDS_OMM_VERS":"2.0","COMMENT":"GENERATED VIA SPACE-TRACK.ORG API","CREATION_DATE":"2004-08-15T23:35:38","ORIGINATOR":"18 SPCS","OBJECT_NAME":"SL-7 R\/B","OBJECT_ID":"1964-050B","CENTER_NAME":"EARTH","REF_FRAME":"TEME","TIME_SYSTEM":"UTC","MEAN_ELEMENT_THEORY":"SGP4","EPOCH":"1965-07-24T20:01:40.437120","MEAN_MOTION":"16.04926956","ECCENTRICITY":"0.01076260","INCLINATION":"48.8965","RA_OF_ASC_NODE":"195.5290","ARG_OF_PERICENTER":"153.9491","MEAN_ANOMALY":"206.6657","EPHEMERIS_TYPE":"0","CLASSIFICATION_TYPE":"U","NORAD_CAT_ID":"866","ELEMENT_SET_NO":"999","REV_AT_EPOCH":"5110","BSTAR":"0.00000000000000","MEAN_MOTION_DOT":"0.00934352","MEAN_MOTION_DDOT":"0.0021754000000","SEMIMAJOR_AXIS":"6638.937","PERIOD":"89.723","APOAPSIS":"332.255","PERIAPSIS":"189.350","OBJECT_TYPE":"ROCKET BODY","RCS_SIZE":null,"COUNTRY_CODE":null,"LAUNCH_DATE":null,"SITE":null,"DECAY_DATE":"1965-08-02","FILE":"33911","GP_ID":"8698008","TLE_LINE0":"0 SL-7 R\/B","TLE_LINE1":"1 00866U 64050  B 65205.83449580  .00934352 +21754-2 +00000-0 0  9991","TLE_LINE2":"2 00866 048.8965 195.5290 0107626 153.9491 206.6657 16.04926956051104"},{"CCSDS_OMM_VERS":"2.0","COMMENT":"GENERATED VIA SPACE-TRACK.ORG API","CREATION_DATE":"2004-08-15T23:35:38","ORIGINATOR":"18 SPCS","OBJECT_NAME":"THOR ABLESTAR DEB","OBJECT_ID":"1965-017E","CENTER_NAME":"EARTH","REF_FRAME":"TEME","TIME_SYSTEM":"UTC","MEAN_ELEMENT_THEORY":"SGP4","EPOCH":"1965-07-29T00:20:36.326112","MEAN_MOTION":"16.11121267","ECCENTRICITY":"0.00559960","INCLINATION":"89.9743","RA_OF_ASC_NODE":"74.4326","ARG_OF_PERICENTER":"269.8644","MEAN_ANOMALY":"89.4806","EPHEMERIS_TYPE":"0","CLASSIFICATION_TYPE":"U","NORAD_CAT_ID":"1251","ELEMENT_SET_NO":"999","REV_AT_EPOCH":"2127","BSTAR":"0.00000000000000","MEAN_MOTION_DOT":"0.02677623","MEAN_MOTION_DDOT":"0.0195830000000","SEMIMAJOR_AXIS":"6621.910","PERIOD":"89.378","APOAPSIS":"280.855","PERIAPSIS":"206.695","OBJECT_TYPE":"DEBRIS","RCS_SIZE":null,"COUNTRY_CODE":null,"LAUNCH_DATE":null,"SITE":null,"DECAY_DATE":"1965-07-30","FILE":"33911","GP_ID":"8700141","TLE_LINE0":"0 THOR ABLESTAR DEB","TLE_LINE1":"1 01251U 65017  E 65210.01430933  .02677623 +19583-1 +00000-0 0  9995","TLE_LINE2":"2 01251 089.9743 074.4326 0055996 269.8644 089.4806 16.11121267021275"},{"CCSDS_OMM_VERS":"2.0","COMMENT":"GENERATED VIA SPACE-TRACK.ORG API","CREATION_DATE":"2004-08-15T23:35:38","ORIGINATOR":"18 SPCS","OBJECT_NAME":"SL-8 DEB","OBJECT_ID":"1965-020AB","CENTER_NAME":"EARTH","REF_FRAME":"TEME","TIME_SYSTEM":"UTC","MEAN_ELEMENT_THEORY":"SGP4","EPOCH":"1965-08-06T16:08:58.187615","MEAN_MOTION":"15.73736326","ECCENTRICITY":"0.02192870","INCLINATION":"56.1047","RA_OF_ASC_NODE":"174.3642","ARG_OF_PERICENTER":"11.2318","MEAN_ANOMALY":"349.3375","EPHEMERIS_TYPE":"0","CLASSIFICATION_TYPE":"U","NORAD_CAT_ID":"1356","ELEMENT_SET_NO":"999","REV_AT_EPOCH":"2075","BSTAR":"0.00000000000000","MEAN_MOTION_DOT":"0.07036559","MEAN_MOTION_DDOT":"0.0878190000000","SEMIMAJOR_AXIS":"6726.370","PERIOD":"91.501","APOAPSIS":"495.736","PERIAPSIS":"200.735","OBJECT_TYPE":"DEBRIS","RCS_SIZE":null,"COUNTRY_CODE":null,"LAUNCH_DATE":null,"SITE":null,"DECAY_DATE":"1965-08-14","FILE":"33911","GP_ID":"8701296","TLE_LINE0":"0 SL-8 DEB","TLE_LINE1":"1 01356U 65020 AB 65218.67289569  .07036559 +87819-1 +00000-0 0  9991","TLE_LINE2":"2 01356 056.1047 174.3642 0219287 011.2318 349.3375 15.73736326020753"},{"CCSDS_OMM_VERS":"2.0","COMMENT":"GENERATED VIA SPACE-TRACK.ORG API","CREATION_DATE":"2004-08-15T23:35:38","ORIGINATOR":"18 SPCS","OBJECT_NAME":"SL-8 DEB","OBJECT_ID":"1965-020AU","CENTER_NAME":"EARTH","REF_FRAME":"TEME","TIME_SYSTEM":"UTC","MEAN_ELEMENT_THEORY":"SGP4","EPOCH":"1965-08-06T17:04:15.523392","MEAN_MOTION":"15.87716857","ECCENTRICITY":"0.02318920","INCLINATION":"55.9241","RA_OF_ASC_NODE":"151.7294","ARG_OF_PERICENTER":"30.0971","MEAN_ANOMALY":"331.2833","EPHEMERIS_TYPE":"0","CLASSIFICATION_TYPE":"U","NORAD_CAT_ID":"1418","ELEMENT_SET_NO":"999","REV_AT_EPOCH":"2152","BSTAR":"0.00000000000000","MEAN_MOTION_DOT":"0.03270285","MEAN_MOTION_DDOT":"0.0216540000000","SEMIMAJOR_AXIS":"6686.826","PERIOD":"90.696","APOAPSIS":"463.754","PERIAPSIS":"153.629","OBJECT_TYPE":"DEBRIS","RCS_SIZE":null,"COUNTRY_CODE":null,"LAUNCH_DATE":null,"SITE":null,"DECAY_DATE":"1965-08-10","FILE":"33911","GP_ID":"8701945","TLE_LINE0":"0 SL-8 DEB","TLE_LINE1":"1 01418U 65020 AU 65218.71129078  .03270285 +21654-1 +00000-0 0  9990","TLE_LINE2":"2 01418 055.9241 151.7294 0231892 030.0971 331.2833 15.87716857021524"},{"CCSDS_OMM_VERS":"2.0","COMMENT":"GENERATED VIA SPACE-TRACK.ORG API","CREATION_DATE":"2004-08-15T23:35:38","ORIGINATOR":"18 SPCS","OBJECT_NAME":"COSMOS 77","OBJECT_ID":"1965-061A","CENTER_NAME":"EARTH","REF_FRAME":"TEME","TIME_SYSTEM":"UTC","MEAN_ELEMENT_THEORY":"SGP4","EPOCH":"1965-08-06T23:36:14.445791","MEAN_MOTION":"16.12741733","ECCENTRICITY":"0.00607240","INCLINATION":"51.8025","RA_OF_ASC_NODE":"108.3854","ARG_OF_PERICENTER":"39.7294","MEAN_ANOMALY":"320.7632","EPHEMERIS_TYPE":"0","CLASSIFICATION_TYPE":"U","NORAD_CAT_ID":"1469","ELEMENT_SET_NO":"999","REV_AT_EPOCH":"57","BSTAR":"0.00000000000000","MEAN_MOTION_DOT":"0.00122543","MEAN_MOTION_DDOT":"0.0000420960000","SEMIMAJOR_AXIS":"6617.473","PERIOD":"89.288","APOAPSIS":"279.522","PERIAPSIS":"199.154","OBJECT_TYPE":"PAYLOAD","RCS_SIZE":null,"COUNTRY_CODE":null,"LAUNCH_DATE":null,"SITE":null,"DECAY_DATE":"1965-08-11","FILE":"33911","GP_ID":"8702452","TLE_LINE0":"0 COSMOS 77","TLE_LINE1":"1 01469U 65061  A 65218.98350053  .00122543 +42096-4 +00000-0 0  9995","TLE_LINE2":"2 01469 051.8025 108.3854 0060724 039.7294 320.7632 16.12741733000575"},{"CCSDS_OMM_VERS":"2.0","COMMENT":"GENERATED VIA SPACE-TRACK.ORG API","CREATION_DATE":"2004-08-15T23:35:38","ORIGINATOR":"18 SPCS","OBJECT_NAME":"OPS 3722 DEB","OBJECT_ID":"1964-011B","CENTER_NAME":"EARTH","REF_FRAME":"TEME","TIME_SYSTEM":"UTC","MEAN_ELEMENT_THEORY":"SGP4","EPOCH":"1965-08-13T20:26:05.553024","MEAN_MOTION":"15.99983894","ECCENTRICITY":"0.00098490","INCLINATION":"82.0248","RA_OF_ASC_NODE":"57.0926","ARG_OF_PERICENTER":"253.4351","MEAN_ANOMALY":"106.6120","EPHEMERIS_TYPE":"0","CLASSIFICATION_TYPE":"U","NORAD_CAT_ID":"760","ELEMENT_SET_NO":"999","REV_AT_EPOCH":"8187","BSTAR":"0.00000000000000","MEAN_MOTION_DOT":"0.01819526","MEAN_MOTION_DDOT":"0.0077233000000","SEMIMAJOR_AXIS":"6652.604","PERIOD":"90.000","APOAPSIS":"281.021","PERIAPSIS":"267.917","OBJECT_TYPE":"DEBRIS","RCS_SIZE":null,"COUNTRY_CODE":null,"LAUNCH_DATE":null,"SITE":null,"DECAY_DATE":"1965-08-17","FILE":"33911","GP_ID":"8697229","TLE_LINE0":"0 OPS 3722 DEB","TLE_LINE1":"1 00760U 64011  B 65225.85145316  .01819526 +77233-2 +00000-0 0  9994","TLE_LINE2":"2 00760 082.0248 057.0926 0009849 253.4351 106.6120 15.99983894081876"}]